{
"type": "FeatureCollection",
"name": "osm_airports",
"crs": { "type": "name", "properties": { "name": "urn:ogc:def:crs:OGC:1.3:CRS84" } },
"features": [
{ "type": "Feature", "properties": { "addr:city": "Mumbai", "aerodrome": "international", "aerodrome:type": "public", "aeroway": "aerodrome", "alt_name": "Mumbai Airport;Mumbai International Airport", "alt_name:mr": "मुंबई विमानतळ;मुंबई आंतरराष्ट्रीय विमानतळ", "ele": "11", "fixme": "airport boundaries are incorrect, and do no include space outside terminals, and many key airside areas", "iata": "BOM", "icao": "VABB", "name": "Chhatrapati Shivaji Maharaj International Airport", "name:ar": "مطار تشاتراباتي شيفاجي الدولي", "name:etymology:wikidata": "Q239505", "name:fa": "فرودگاه بین‌المللی چاتراپاتی شیواجی", "name:hi": "छत्रपति शिवाजी महाराज अंतर्राष्ट्रीय विमानक्षेत्र", "name:ja": "チャトラパティ・シヴァージー・マハラジ国際空港", "name:kn": "ಛತ್ರಪತಿ ಶಿವಾಜಿ ಇಂಟರ್‌ನ್ಯಾಶನಲ್ ಏರ್‌ಪೋರ್ಟ್", "name:ml": "ഛത്രപതി ശിവാജി മഹാരാജ് അന്താരാഷ്ട്ര വിമാനത്താവളം", "name:mr": "छत्रपती शिवाजी महाराज आंतरराष्ट्रीय विमानतळ", "name:ru": "Международный аэропорт имени Чатрапати Шиваджи", "name:ta": "சத்திரபதி சிவாஜி பன்னாட்டு வானூர்தி நிலையம்", "name:zh": "贾特拉帕蒂·希瓦吉国际机场", "operator": "Mumbai International Airport Limited", "operator:type": "government", "rank_aci:2016": "29", "source": "Gagravarr_Airports", "website": "https://csmia.adaniairports.com/", "wikidata": "Q504368", "wikipedia": "en:Chhatrapati Shivaji Maharaj International Airport", "osm_id": 22826676, "osm_type": "way" }, "geometry": { "type": "Polygon", "coordinates": [ [ [ 72.8767117, 19.1000784 ], [ 72.8769181, 19.1000795 ], [ 72.8771582, 19.1004113 ], [ 72.8788217, 19.0997731 ], [ 72.8789512, 19.0996473 ], [ 72.8787813, 19.0987591 ], [ 72.8790146, 19.0983333 ], [ 72.8792936, 19.0982928 ], [ 72.879779, 19.0984018 ], [ 72.8807393, 19.0978999 ], [ 72.8807017, 19.0975983 ], [ 72.8806159, 19.0974716 ], [ 72.880758, 19.0971801 ], [ 72.8808923, 19.0967107 ], [ 72.8808004, 19.0963535 ], [ 72.8803377, 19.0960059 ], [ 72.8806306, 19.0957649 ], [ 72.8807017, 19.0958203 ], [ 72.8808106, 19.0958915 ], [ 72.8809454, 19.0959722 ], [ 72.8811054, 19.0960568 ], [ 72.8812995, 19.0961596 ], [ 72.8815045, 19.0962521 ], [ 72.8817122, 19.0963319 ], [ 72.8819081, 19.0964011 ], [ 72.8819247, 19.0963613 ], [ 72.8819317, 19.0963445 ], [ 72.8819444, 19.0963141 ], [ 72.8819505, 19.0962772 ], [ 72.8819613, 19.0961784 ], [ 72.8819351, 19.0961792 ], [ 72.8819326, 19.0961025 ], [ 72.8818566, 19.0960969 ], [ 72.8818566, 19.0960466 ], [ 72.8816794, 19.0959826 ], [ 72.8817495, 19.0957826 ], [ 72.8817655, 19.0957172 ], [ 72.8817687, 19.0956589 ], [ 72.8817623, 19.0955985 ], [ 72.8815845, 19.0948074 ], [ 72.881543, 19.094815 ], [ 72.8815215, 19.094725 ], [ 72.8814397, 19.094725 ], [ 72.8814244, 19.0944023 ], [ 72.8812839, 19.0944153 ], [ 72.8812626, 19.0944093 ], [ 72.8812318, 19.0943892 ], [ 72.8812159, 19.0943639 ], [ 72.8811977, 19.0943439 ], [ 72.8811551, 19.0943178 ], [ 72.8811379, 19.0943156 ], [ 72.8811072, 19.0943117 ], [ 72.8810687, 19.0943141 ], [ 72.8807155, 19.0943782 ], [ 72.8806974, 19.0943072 ], [ 72.8806404, 19.0943202 ], [ 72.8805703, 19.0940759 ], [ 72.8803792, 19.0941525 ], [ 72.8802834, 19.0941766 ], [ 72.8801663, 19.0941947 ], [ 72.880161, 19.0943979 ], [ 72.8800243, 19.0944002 ], [ 72.8799476, 19.0944102 ], [ 72.8798657, 19.0944374 ], [ 72.8798373, 19.0944501 ], [ 72.8797243, 19.0945007 ], [ 72.8797728, 19.0945385 ], [ 72.8798514, 19.0946214 ], [ 72.8799294, 19.0947266 ], [ 72.8800932, 19.0949985 ], [ 72.8804134, 19.0955465 ], [ 72.8804564, 19.0956045 ], [ 72.8804948, 19.0956375 ], [ 72.8805539, 19.0956817 ], [ 72.880261, 19.0959228 ], [ 72.8798944, 19.0955073 ], [ 72.8798622, 19.0953045 ], [ 72.8796905, 19.0949192 ], [ 72.8793794, 19.0946911 ], [ 72.8789127, 19.0946708 ], [ 72.8781938, 19.0935701 ], [ 72.8782019, 19.0932409 ], [ 72.8786557, 19.0914867 ], [ 72.8786499, 19.0912677 ], [ 72.8791326, 19.0912634 ], [ 72.8791473, 19.091264 ], [ 72.8792327, 19.0912677 ], [ 72.8794236, 19.0913821 ], [ 72.8794438, 19.0914848 ], [ 72.8805396, 19.0914551 ], [ 72.8806, 19.0914508 ], [ 72.8812127, 19.0914075 ], [ 72.8812408, 19.0914315 ], [ 72.8813706, 19.0913782 ], [ 72.8813119, 19.0910665 ], [ 72.8813696, 19.0909867 ], [ 72.8813481, 19.090789 ], [ 72.8816644, 19.089901 ], [ 72.8818362, 19.0897861 ], [ 72.8815459, 19.0892257 ], [ 72.8815406, 19.0892542 ], [ 72.8814789, 19.089258 ], [ 72.8814816, 19.0890907 ], [ 72.8813481, 19.0887942 ], [ 72.8812905, 19.0886332 ], [ 72.8812234, 19.088419 ], [ 72.8811805, 19.0882327 ], [ 72.8811416, 19.088049 ], [ 72.8811336, 19.0878982 ], [ 72.8802987, 19.0878082 ], [ 72.8802551, 19.0877727 ], [ 72.8796402, 19.0877879 ], [ 72.8796416, 19.0877442 ], [ 72.8793559, 19.087741 ], [ 72.8793499, 19.0876206 ], [ 72.8792446, 19.0875959 ], [ 72.8789375, 19.0876618 ], [ 72.8789435, 19.087798 ], [ 72.8786228, 19.0877884 ], [ 72.8785844, 19.0875724 ], [ 72.8785546, 19.087504 ], [ 72.878395, 19.0872467 ], [ 72.8774295, 19.0871782 ], [ 72.8774357, 19.0871 ], [ 72.8772698, 19.0870921 ], [ 72.8769989, 19.0870414 ], [ 72.8768031, 19.0870414 ], [ 72.8766234, 19.0871213 ], [ 72.8765979, 19.0870908 ], [ 72.8765738, 19.0867702 ], [ 72.8765148, 19.0863938 ], [ 72.8764611, 19.0863786 ], [ 72.8764759, 19.0862506 ], [ 72.8763056, 19.0862125 ], [ 72.8763136, 19.0860706 ], [ 72.8762372, 19.0856283 ], [ 72.8752114, 19.085806 ], [ 72.8751735, 19.0857797 ], [ 72.8752497, 19.0854357 ], [ 72.8756951, 19.084719 ], [ 72.875977, 19.0848121 ], [ 72.8760776, 19.084551 ], [ 72.8763297, 19.0839667 ], [ 72.8769788, 19.0832 ], [ 72.8769158, 19.0831632 ], [ 72.8769936, 19.0830618 ], [ 72.8770553, 19.0829123 ], [ 72.877121, 19.0826537 ], [ 72.8771706, 19.0825244 ], [ 72.8773382, 19.0820834 ], [ 72.8773919, 19.0819769 ], [ 72.8777419, 19.0812634 ], [ 72.8779592, 19.080783 ], [ 72.877927, 19.0806968 ], [ 72.8780799, 19.080271 ], [ 72.8781845, 19.0800568 ], [ 72.8782354, 19.0798933 ], [ 72.8782421, 19.0798121 ], [ 72.8782368, 19.0797184 ], [ 72.8782247, 19.0796258 ], [ 72.8781322, 19.0794813 ], [ 72.8778747, 19.0792139 ], [ 72.8777781, 19.0791227 ], [ 72.8777079, 19.0790911 ], [ 72.8774871, 19.0790846 ], [ 72.8774187, 19.0791037 ], [ 72.8773463, 19.0791391 ], [ 72.8770848, 19.0792976 ], [ 72.8771127, 19.079335 ], [ 72.8768138, 19.0794633 ], [ 72.8763818, 19.0795428 ], [ 72.876148, 19.0797378 ], [ 72.875867, 19.079257 ], [ 72.874544, 19.0798419 ], [ 72.8720865, 19.081001 ], [ 72.8709452, 19.0815396 ], [ 72.8706917, 19.0816474 ], [ 72.8692876, 19.0822267 ], [ 72.8684387, 19.0826005 ], [ 72.8675415, 19.0825092 ], [ 72.8670479, 19.082456 ], [ 72.8668199, 19.0824573 ], [ 72.8666349, 19.0824725 ], [ 72.8664726, 19.0825105 ], [ 72.8663787, 19.0825472 ], [ 72.8662741, 19.0826144 ], [ 72.866085, 19.0827652 ], [ 72.8654852, 19.0833306 ], [ 72.8649486, 19.0838856 ], [ 72.8640623, 19.0843024 ], [ 72.864039, 19.0843139 ], [ 72.8639222, 19.0843551 ], [ 72.8632987, 19.0843675 ], [ 72.8624726, 19.0842938 ], [ 72.862342, 19.0842988 ], [ 72.8617144, 19.0843748 ], [ 72.8613429, 19.0844657 ], [ 72.8612302, 19.0846448 ], [ 72.8609821, 19.0850972 ], [ 72.8604296, 19.0850605 ], [ 72.8594353, 19.0850315 ], [ 72.8577305, 19.0860569 ], [ 72.8577729, 19.0856498 ], [ 72.8574403, 19.0856473 ], [ 72.8574625, 19.0845682 ], [ 72.8574631, 19.0845383 ], [ 72.8570619, 19.0845052 ], [ 72.856248, 19.0844699 ], [ 72.8551134, 19.0843495 ], [ 72.8551161, 19.0845523 ], [ 72.8554633, 19.0851409 ], [ 72.8557815, 19.085608 ], [ 72.8557773, 19.085717 ], [ 72.8562534, 19.086461 ], [ 72.8561796, 19.0868817 ], [ 72.8559248, 19.0868855 ], [ 72.855037, 19.0868919 ], [ 72.8534116, 19.0868944 ], [ 72.8533995, 19.08648 ], [ 72.8530334, 19.0864888 ], [ 72.8525278, 19.0863393 ], [ 72.8522837, 19.0863038 ], [ 72.8518398, 19.0863177 ], [ 72.8517379, 19.0861251 ], [ 72.8511867, 19.0862582 ], [ 72.8511022, 19.0859046 ], [ 72.8506556, 19.085883 ], [ 72.8507012, 19.0850985 ], [ 72.8502721, 19.0852202 ], [ 72.850319, 19.0854825 ], [ 72.8503351, 19.085551 ], [ 72.8503539, 19.0856131 ], [ 72.85037, 19.0857284 ], [ 72.8503565, 19.0862823 ], [ 72.8497075, 19.086352 ], [ 72.8496712, 19.0862163 ], [ 72.8494491, 19.0862747 ], [ 72.8491066, 19.0863659 ], [ 72.8488587, 19.086419 ], [ 72.8483932, 19.0864901 ], [ 72.8483248, 19.0863722 ], [ 72.8482644, 19.0863279 ], [ 72.8481773, 19.0865078 ], [ 72.8481276, 19.0866346 ], [ 72.8481196, 19.0868069 ], [ 72.8478648, 19.0868323 ], [ 72.8477159, 19.0868298 ], [ 72.8477186, 19.0867955 ], [ 72.8476958, 19.0867791 ], [ 72.8476529, 19.086774 ], [ 72.8474437, 19.0867778 ], [ 72.8470159, 19.0867715 ], [ 72.8467543, 19.0867829 ], [ 72.8464231, 19.0868348 ], [ 72.846285, 19.0868652 ], [ 72.8461173, 19.0869197 ], [ 72.8457338, 19.0871707 ], [ 72.8454924, 19.0873798 ], [ 72.8454079, 19.087447 ], [ 72.8453059, 19.087556 ], [ 72.8452604, 19.0876307 ], [ 72.8451611, 19.0876409 ], [ 72.8451182, 19.0877423 ], [ 72.8444919, 19.0880109 ], [ 72.8442036, 19.0879539 ], [ 72.8442438, 19.0878487 ], [ 72.8441915, 19.0877904 ], [ 72.8440627, 19.0880654 ], [ 72.8439501, 19.0884647 ], [ 72.8439099, 19.0886129 ], [ 72.8438871, 19.0887828 ], [ 72.8438683, 19.088912 ], [ 72.843871, 19.0891833 ], [ 72.8439206, 19.0895622 ], [ 72.8440507, 19.0900248 ], [ 72.8441486, 19.0900527 ], [ 72.844166, 19.090116 ], [ 72.8441204, 19.0901591 ], [ 72.8441848, 19.0903112 ], [ 72.8448127, 19.0910411 ], [ 72.8456131, 19.0910488 ], [ 72.8458035, 19.0910906 ], [ 72.8459081, 19.0911033 ], [ 72.8458947, 19.0909119 ], [ 72.845892, 19.0907801 ], [ 72.8458706, 19.0906166 ], [ 72.8458866, 19.0901148 ], [ 72.8460369, 19.0901084 ], [ 72.8464566, 19.090552 ], [ 72.8467785, 19.0909069 ], [ 72.8469153, 19.0910526 ], [ 72.8470588, 19.0910665 ], [ 72.8479439, 19.0911033 ], [ 72.8483704, 19.0911071 ], [ 72.8491335, 19.0912085 ], [ 72.8493574, 19.0912604 ], [ 72.8494486, 19.0913099 ], [ 72.849517, 19.0913821 ], [ 72.84969, 19.0916432 ], [ 72.8497651, 19.0917344 ], [ 72.8500119, 19.0919093 ], [ 72.8501607, 19.092058 ], [ 72.8502466, 19.0921438 ], [ 72.8506006, 19.0921527 ], [ 72.8506047, 19.0922021 ], [ 72.8507119, 19.0922059 ], [ 72.850716, 19.0921083 ], [ 72.8511679, 19.0921108 ], [ 72.8512363, 19.0921527 ], [ 72.8513221, 19.0921615 ], [ 72.85199, 19.0921552 ], [ 72.8520061, 19.0922059 ], [ 72.8519645, 19.0922236 ], [ 72.8519042, 19.0921894 ], [ 72.8516212, 19.0921919 ], [ 72.8516802, 19.0922883 ], [ 72.8520195, 19.0925886 ], [ 72.8520598, 19.0927813 ], [ 72.8521664, 19.093176 ], [ 72.8523588, 19.0931887 ], [ 72.8526498, 19.0931855 ], [ 72.8526592, 19.0932299 ], [ 72.8534853, 19.0932476 ], [ 72.853488, 19.0932159 ], [ 72.8535953, 19.0932654 ], [ 72.8536516, 19.0933021 ], [ 72.8542444, 19.0933173 ], [ 72.8543088, 19.0931614 ], [ 72.8543463, 19.0931272 ], [ 72.8544241, 19.0931184 ], [ 72.8548184, 19.0931108 ], [ 72.8549431, 19.0930195 ], [ 72.8549954, 19.0930917 ], [ 72.85521, 19.0934263 ], [ 72.8562135, 19.092871 ], [ 72.8563807, 19.0931215 ], [ 72.8566302, 19.0934973 ], [ 72.8568159, 19.0937736 ], [ 72.8570584, 19.094137 ], [ 72.8571399, 19.0941119 ], [ 72.8571787, 19.0941563 ], [ 72.8573645, 19.0940676 ], [ 72.8573866, 19.094098 ], [ 72.8575549, 19.0940049 ], [ 72.8575294, 19.0939719 ], [ 72.8577132, 19.0938642 ], [ 72.8578493, 19.09406 ], [ 72.8580491, 19.0939421 ], [ 72.8581054, 19.0940194 ], [ 72.8581282, 19.0940068 ], [ 72.8582691, 19.0942361 ], [ 72.8584662, 19.0945264 ], [ 72.8586258, 19.0944338 ], [ 72.8587612, 19.0946366 ], [ 72.8584595, 19.0948584 ], [ 72.8586714, 19.0951702 ], [ 72.8588431, 19.0954401 ], [ 72.8588122, 19.0955035 ], [ 72.8585346, 19.0957658 ], [ 72.8566879, 19.0974665 ], [ 72.8566557, 19.0975539 ], [ 72.8558846, 19.0982852 ], [ 72.8557987, 19.0982801 ], [ 72.8550598, 19.0988669 ], [ 72.8551215, 19.0990595 ], [ 72.8551041, 19.0990886 ], [ 72.8556599, 19.1003832 ], [ 72.8559449, 19.1009465 ], [ 72.8560515, 19.1011568 ], [ 72.8562038, 19.1010276 ], [ 72.8567114, 19.1006252 ], [ 72.856871, 19.1004902 ], [ 72.8571097, 19.1004725 ], [ 72.857168, 19.1005042 ], [ 72.8571773, 19.1004996 ], [ 72.8571425, 19.1003876 ], [ 72.8572378, 19.1003306 ], [ 72.8572579, 19.1001633 ], [ 72.8573196, 19.1000974 ], [ 72.8578198, 19.0998123 ], [ 72.8580075, 19.099721 ], [ 72.8580531, 19.0997578 ], [ 72.8579888, 19.1000518 ], [ 72.8581953, 19.1000758 ], [ 72.8581658, 19.1002064 ], [ 72.8587612, 19.1002647 ], [ 72.8588954, 19.1002241 ], [ 72.8589758, 19.100143 ], [ 72.8591582, 19.1003255 ], [ 72.8594506, 19.1001405 ], [ 72.8595311, 19.1001785 ], [ 72.8605852, 19.1012253 ], [ 72.8612976, 19.1006084 ], [ 72.8620604, 19.0999479 ], [ 72.8636348, 19.0986501 ], [ 72.864233, 19.0981914 ], [ 72.8638279, 19.0972004 ], [ 72.8635141, 19.0966047 ], [ 72.8636026, 19.0964729 ], [ 72.8636724, 19.0963538 ], [ 72.8639674, 19.0960015 ], [ 72.8637421, 19.095492 ], [ 72.8640076, 19.0954084 ], [ 72.8641176, 19.0954439 ], [ 72.8642222, 19.0954946 ], [ 72.8645173, 19.0956251 ], [ 72.8650081, 19.0957202 ], [ 72.8650899, 19.095743 ], [ 72.8651395, 19.0956847 ], [ 72.865389, 19.0958393 ], [ 72.8654145, 19.0959457 ], [ 72.8654037, 19.0960813 ], [ 72.865507, 19.0961308 ], [ 72.8655781, 19.0961371 ], [ 72.8656787, 19.0961815 ], [ 72.8657632, 19.0962841 ], [ 72.8657216, 19.0963703 ], [ 72.8658356, 19.096421 ], [ 72.8658839, 19.0964387 ], [ 72.865853, 19.0965198 ], [ 72.8658946, 19.0965718 ], [ 72.8658517, 19.0966453 ], [ 72.8658517, 19.0966884 ], [ 72.8660408, 19.0968392 ], [ 72.8659683, 19.0969165 ], [ 72.8660797, 19.0970369 ], [ 72.8662352, 19.0971433 ], [ 72.8670144, 19.0973981 ], [ 72.8671002, 19.0974526 ], [ 72.8675415, 19.097611 ], [ 72.8676863, 19.0976604 ], [ 72.8686371, 19.0975717 ], [ 72.8688464, 19.0975806 ], [ 72.8689764, 19.0976249 ], [ 72.8692581, 19.0977821 ], [ 72.8693841, 19.0978239 ], [ 72.8694794, 19.097867 ], [ 72.8698817, 19.0980951 ], [ 72.8705697, 19.0986616 ], [ 72.8712177, 19.0992397 ], [ 72.8712348, 19.0990244 ], [ 72.8712322, 19.098147 ], [ 72.8711973, 19.098064 ], [ 72.871244, 19.0980145 ], [ 72.8713354, 19.0979177 ], [ 72.8713556, 19.0979291 ], [ 72.871381, 19.0978885 ], [ 72.8714574, 19.0978795 ], [ 72.871428, 19.0988344 ], [ 72.8714271, 19.0988648 ], [ 72.8723485, 19.0988818 ], [ 72.8723517, 19.0997116 ], [ 72.8724847, 19.0997078 ], [ 72.8728494, 19.0992143 ], [ 72.8729274, 19.0992668 ], [ 72.8729168, 19.0993795 ], [ 72.8729226, 19.0995026 ], [ 72.8729433, 19.099591 ], [ 72.8729782, 19.0996817 ], [ 72.873022, 19.0997532 ], [ 72.873102, 19.099856 ], [ 72.8732046, 19.0999417 ], [ 72.8732991, 19.0999986 ], [ 72.8733873, 19.1000343 ], [ 72.8734659, 19.1000588 ], [ 72.8735432, 19.1000725 ], [ 72.8735982, 19.1000767 ], [ 72.8736576, 19.1000788 ], [ 72.8741549, 19.100082 ], [ 72.8745865, 19.1000888 ], [ 72.8753587, 19.1000975 ], [ 72.8755275, 19.1000965 ], [ 72.8755808, 19.1000916 ], [ 72.8756323, 19.1000832 ], [ 72.8756803, 19.1000694 ], [ 72.8757461, 19.1000439 ], [ 72.8758025, 19.1000193 ], [ 72.8758593, 19.0999876 ], [ 72.8759305, 19.0999338 ], [ 72.8759885, 19.09988 ], [ 72.8760369, 19.0998216 ], [ 72.8761117, 19.0997003 ], [ 72.8761379, 19.0996391 ], [ 72.8761573, 19.0995798 ], [ 72.8761728, 19.0994446 ], [ 72.8761694, 19.0993454 ], [ 72.8761476, 19.0992415 ], [ 72.8767117, 19.1000784 ] ] ] } }
]
}
