{
"type": "FeatureCollection",
"name": "osm_industrial",
"crs": { "type": "name", "properties": { "name": "urn:ogc:def:crs:OGC:1.3:CRS84" } },
"features": [
{ "type": "Feature", "properties": { "landuse": "industrial", "osm_id": 1219552145, "osm_type": "way", "industrial": null }, "geometry": { "type": "Polygon", "coordinates": [ [ [ 72.8678923, 19.2915607 ], [ 72.8678997, 19.2914824 ], [ 72.8680079, 19.2913691 ], [ 72.8681012, 19.2914054 ], [ 72.8681975, 19.2914152 ], [ 72.8682657, 19.2914516 ], [ 72.8683902, 19.2914964 ], [ 72.8680612, 19.2918223 ], [ 72.868036, 19.2917803 ], [ 72.8680419, 19.2917257 ], [ 72.8680227, 19.2916544 ], [ 72.8678923, 19.2915607 ] ] ] } },
{ "type": "Feature", "properties": { "landuse": "industrial", "osm_id": 1219731039, "osm_type": "way", "industrial": "scrap_yard" }, "geometry": { "type": "Polygon", "coordinates": [ [ [ 72.8748349, 19.298513 ], [ 72.875397, 19.2992543 ], [ 72.875891, 19.2988914 ], [ 72.8753474, 19.2981619 ], [ 72.8748349, 19.298513 ] ] ] } },
{ "type": "Feature", "properties": { "landuse": "industrial", "osm_id": 1220518300, "osm_type": "way", "industrial": null }, "geometry": { "type": "Polygon", "coordinates": [ [ [ 72.8733364, 19.2894377 ], [ 72.8733605, 19.2893168 ], [ 72.8733338, 19.2893084 ], [ 72.8733529, 19.2892653 ], [ 72.8732818, 19.2891767 ], [ 72.8737335, 19.2891815 ], [ 72.8739466, 19.2893455 ], [ 72.8736853, 19.2895695 ], [ 72.8735165, 19.2894725 ], [ 72.8733364, 19.2894377 ] ] ] } },
{ "type": "Feature", "properties": { "landuse": "industrial", "osm_id": 1220518301, "osm_type": "way", "industrial": null }, "geometry": { "type": "Polygon", "coordinates": [ [ [ 72.8731652, 19.2898162 ], [ 72.8732756, 19.2894701 ], [ 72.8733428, 19.2894665 ], [ 72.8735052, 19.2894988 ], [ 72.8735522, 19.2895443 ], [ 72.8733986, 19.2897563 ], [ 72.8731652, 19.2898162 ] ] ] } },
{ "type": "Feature", "properties": { "landuse": "industrial", "osm_id": 1221238751, "osm_type": "way", "industrial": null }, "geometry": { "type": "Polygon", "coordinates": [ [ [ 72.8785698, 19.2879458 ], [ 72.8790394, 19.2884098 ], [ 72.8791017, 19.2883955 ], [ 72.8791825, 19.2883224 ], [ 72.8787768, 19.2878013 ], [ 72.8785698, 19.2879458 ] ] ] } },
{ "type": "Feature", "properties": { "landuse": "industrial", "osm_id": 1221243292, "osm_type": "way", "industrial": null }, "geometry": { "type": "Polygon", "coordinates": [ [ [ 72.8771258, 19.2846585 ], [ 72.8773684, 19.2848949 ], [ 72.8777259, 19.2850279 ], [ 72.8778433, 19.2849638 ], [ 72.8779294, 19.2850008 ], [ 72.8779737, 19.284986 ], [ 72.8781328, 19.2851165 ], [ 72.8783233, 19.2849343 ], [ 72.8779424, 19.2845033 ], [ 72.877885, 19.28456 ], [ 72.8776189, 19.2842916 ], [ 72.8771258, 19.2846585 ] ] ] } },
{ "type": "Feature", "properties": { "landuse": "industrial", "osm_id": 1222455318, "osm_type": "way", "industrial": null }, "geometry": { "type": "Polygon", "coordinates": [ [ [ 72.8683555, 19.2886526 ], [ 72.867782, 19.2891127 ], [ 72.8682206, 19.2895463 ], [ 72.8684444, 19.2893603 ], [ 72.8683421, 19.2892204 ], [ 72.8686474, 19.2889631 ], [ 72.8683555, 19.2886526 ] ] ] } },
{ "type": "Feature", "properties": { "landuse": "industrial", "osm_id": 1223849587, "osm_type": "way", "industrial": null }, "geometry": { "type": "Polygon", "coordinates": [ [ [ 72.8793777, 19.2748163 ], [ 72.8802863, 19.2741991 ], [ 72.8802829, 19.2751612 ], [ 72.8798303, 19.2750346 ], [ 72.8795319, 19.2750821 ], [ 72.8793475, 19.2750125 ], [ 72.8793777, 19.2748163 ] ] ] } },
{ "type": "Feature", "properties": { "landuse": "industrial", "osm_id": 1226119141, "osm_type": "way", "industrial": null }, "geometry": { "type": "Polygon", "coordinates": [ [ [ 72.8531156, 19.2891484 ], [ 72.8534825, 19.2891942 ], [ 72.8534808, 19.2889287 ], [ 72.8534886, 19.288838 ], [ 72.8531766, 19.2888249 ], [ 72.8531376, 19.2890038 ], [ 72.8531156, 19.2891484 ] ] ] } },
{ "type": "Feature", "properties": { "landuse": "industrial", "osm_id": 1226446262, "osm_type": "way", "industrial": null }, "geometry": { "type": "Polygon", "coordinates": [ [ [ 72.8576911, 19.2951764 ], [ 72.8573907, 19.2948017 ], [ 72.8567952, 19.2940422 ], [ 72.8566289, 19.2936827 ], [ 72.856586, 19.2934346 ], [ 72.8569548, 19.2933258 ], [ 72.8571439, 19.293384 ], [ 72.8572566, 19.2937131 ], [ 72.8575033, 19.2937992 ], [ 72.8581095, 19.2942346 ], [ 72.8581471, 19.2945739 ], [ 72.8580183, 19.2949485 ], [ 72.8576911, 19.2951764 ] ] ] } },
{ "type": "Feature", "properties": { "landuse": "industrial", "osm_id": 1432484704, "osm_type": "way", "industrial": null }, "geometry": { "type": "Polygon", "coordinates": [ [ [ 72.8661681, 19.3006105 ], [ 72.8663495, 19.3004596 ], [ 72.866481, 19.3006066 ], [ 72.8663029, 19.3007559 ], [ 72.8661681, 19.3006105 ] ] ] } }
]
}
