{
"type": "FeatureCollection",
"name": "osm_rivers",
"crs": { "type": "name", "properties": { "name": "urn:ogc:def:crs:OGC:1.3:CRS84" } },
"features": [
{ "type": "Feature", "properties": { "waterway": "river", "osm_id": 319989464, "osm_type": "way" }, "geometry": { "type": "LineString", "coordinates": [ [ 73.1054369, 20.3205282 ], [ 73.1052927, 20.3207283 ], [ 73.1051775, 20.3211986 ], [ 73.1050967, 20.3218148 ], [ 73.104993, 20.3230041 ], [ 73.1049008, 20.3232257 ], [ 73.1043128, 20.323615 ], [ 73.1040995, 20.323696 ], [ 73.1032636, 20.323842 ], [ 73.1024911, 20.3233609 ], [ 73.1017417, 20.3231176 ], [ 73.1007906, 20.3235068 ], [ 73.1004735, 20.3243177 ], [ 73.1001738, 20.3253502 ], [ 73.1004793, 20.3257881 ], [ 73.100462, 20.3263989 ], [ 73.1002084, 20.3269719 ], [ 73.0997414, 20.327453 ], [ 73.0993437, 20.3277611 ], [ 73.0987787, 20.3278476 ], [ 73.0986577, 20.3275881 ], [ 73.0984328, 20.327307 ], [ 73.0975855, 20.3272584 ], [ 73.0970378, 20.3273611 ], [ 73.0962308, 20.3277287 ], [ 73.0957811, 20.3287828 ], [ 73.0955678, 20.3292909 ], [ 73.0954122, 20.3299341 ], [ 73.0948242, 20.3304423 ], [ 73.0943054, 20.3308693 ], [ 73.0939653, 20.3310693 ], [ 73.093556, 20.3312098 ], [ 73.0921782, 20.3310152 ], [ 73.0917055, 20.3308909 ], [ 73.091279, 20.3308531 ], [ 73.0911637, 20.331118 ], [ 73.0911752, 20.331545 ], [ 73.0911579, 20.3322099 ], [ 73.0912444, 20.332518 ], [ 73.0909619, 20.332772 ], [ 73.0898839, 20.3329072 ], [ 73.0895496, 20.3330639 ], [ 73.0891518, 20.3334639 ], [ 73.0889731, 20.3338639 ], [ 73.0888059, 20.3345558 ], [ 73.0887771, 20.3353666 ], [ 73.0884139, 20.335718 ], [ 73.087261, 20.3362693 ], [ 73.0864943, 20.3367504 ], [ 73.0861657, 20.336972 ], [ 73.0859755, 20.3372585 ], [ 73.0858314, 20.3376152 ], [ 73.0856988, 20.3379071 ], [ 73.0854163, 20.3381395 ], [ 73.0849609, 20.3381936 ], [ 73.0841193, 20.3379936 ], [ 73.0836466, 20.3377503 ], [ 73.0833526, 20.3375179 ], [ 73.0828684, 20.3373504 ], [ 73.0822977, 20.3373936 ], [ 73.0819633, 20.3379666 ], [ 73.0817328, 20.3385017 ], [ 73.0816636, 20.3387773 ], [ 73.0818077, 20.3390638 ], [ 73.0822689, 20.3393233 ], [ 73.0828569, 20.339453 ], [ 73.0830183, 20.3394908 ], [ 73.083197, 20.3396476 ], [ 73.0833123, 20.3398422 ], [ 73.0832719, 20.340134 ], [ 73.0828857, 20.3407178 ], [ 73.082609, 20.3411502 ], [ 73.0821363, 20.3415448 ], [ 73.0816463, 20.3412637 ], [ 73.0814099, 20.3411178 ], [ 73.081139, 20.3410853 ], [ 73.0808623, 20.3411934 ], [ 73.0806375, 20.3414637 ], [ 73.0803896, 20.3417069 ], [ 73.080061, 20.3419231 ], [ 73.0797267, 20.342015 ], [ 73.0792251, 20.3420745 ], [ 73.0785737, 20.3413232 ], [ 73.0783143, 20.3409935 ], [ 73.0781472, 20.3408962 ], [ 73.0779281, 20.3408691 ], [ 73.0775938, 20.3409718 ], [ 73.0772075, 20.3411664 ], [ 73.0763832, 20.3415826 ], [ 73.0757433, 20.3420366 ], [ 73.0749939, 20.3425555 ], [ 73.0746192, 20.3434906 ], [ 73.0745443, 20.3441933 ], [ 73.0738756, 20.3448527 ], [ 73.0734259, 20.3451608 ], [ 73.0731608, 20.3453013 ], [ 73.0727457, 20.3453445 ], [ 73.0719905, 20.3453121 ], [ 73.071587, 20.3452743 ], [ 73.0708607, 20.3452202 ], [ 73.070486, 20.3450959 ], [ 73.0702727, 20.3448365 ], [ 73.0688431, 20.3446149 ], [ 73.0683761, 20.3445824 ], [ 73.0675172, 20.3442365 ], [ 73.0664911, 20.3442419 ], [ 73.0661625, 20.3444473 ], [ 73.065955, 20.3447284 ], [ 73.0658166, 20.3454364 ], [ 73.0659089, 20.3457229 ], [ 73.0660876, 20.3459985 ], [ 73.066762, 20.3467012 ], [ 73.0668082, 20.3470309 ], [ 73.0667736, 20.3473011 ], [ 73.0666871, 20.347566 ], [ 73.0664392, 20.3477227 ], [ 73.0659838, 20.3478308 ], [ 73.0656783, 20.3478362 ], [ 73.0650557, 20.3477281 ], [ 73.06456, 20.3474254 ], [ 73.0641449, 20.3472795 ], [ 73.0638048, 20.3471876 ], [ 73.0634301, 20.3472038 ], [ 73.0631534, 20.3474525 ], [ 73.062796, 20.3477605 ], [ 73.062306, 20.3480308 ], [ 73.0614067, 20.34802 ], [ 73.0608706, 20.3478146 ], [ 73.0602768, 20.3477551 ], [ 73.0594583, 20.3480686 ], [ 73.0588242, 20.3483118 ], [ 73.0582765, 20.3482686 ], [ 73.057873, 20.3481443 ], [ 73.0575386, 20.3476362 ], [ 73.0572677, 20.3473552 ], [ 73.0568008, 20.3472038 ], [ 73.0557459, 20.3469822 ], [ 73.055325, 20.3469174 ], [ 73.0547947, 20.3471444 ], [ 73.054639, 20.3474633 ], [ 73.0543278, 20.3479984 ], [ 73.0538493, 20.3483172 ], [ 73.0535726, 20.3485551 ], [ 73.0531287, 20.3487604 ], [ 73.0527944, 20.3488199 ], [ 73.0524715, 20.3486307 ], [ 73.0519643, 20.3483172 ], [ 73.051359, 20.3476579 ], [ 73.0506788, 20.3472849 ], [ 73.0499121, 20.3468039 ], [ 73.0487534, 20.346312 ], [ 73.0480904, 20.3458634 ], [ 73.0476235, 20.3454094 ], [ 73.0473987, 20.344977 ], [ 73.0471969, 20.3445014 ], [ 73.0472085, 20.344296 ], [ 73.0473468, 20.3439446 ], [ 73.0476293, 20.3434095 ], [ 73.0477676, 20.3430528 ], [ 73.0476754, 20.3427123 ], [ 73.0474909, 20.3424582 ], [ 73.0468914, 20.3423988 ], [ 73.0459864, 20.3424366 ], [ 73.0456578, 20.3424528 ], [ 73.0447643, 20.3423285 ], [ 73.0441359, 20.3420745 ], [ 73.0435191, 20.3418853 ], [ 73.0431502, 20.3417772 ], [ 73.0423373, 20.3419988 ], [ 73.0419857, 20.3423826 ], [ 73.0416744, 20.3430366 ], [ 73.0415707, 20.3433501 ], [ 73.0411614, 20.3435339 ], [ 73.0408616, 20.3435987 ], [ 73.0403947, 20.3434852 ], [ 73.0397894, 20.3431825 ], [ 73.0393225, 20.3425447 ], [ 73.03904, 20.341815 ], [ 73.0383771, 20.3413556 ], [ 73.0378755, 20.3409935 ], [ 73.0375008, 20.3403827 ], [ 73.0372241, 20.3396205 ], [ 73.0369301, 20.3389395 ], [ 73.0364401, 20.3384692 ], [ 73.0355985, 20.3382152 ], [ 73.0351085, 20.3380909 ], [ 73.0343822, 20.338053 ], [ 73.0336904, 20.3379287 ], [ 73.0329987, 20.3377071 ], [ 73.0318803, 20.337599 ], [ 73.0312462, 20.3375666 ], [ 73.0308139, 20.3373612 ], [ 73.0304104, 20.3370855 ], [ 73.0301798, 20.3362963 ], [ 73.0301509, 20.3357234 ], [ 73.0303008, 20.334999 ], [ 73.0305948, 20.3345882 ], [ 73.0311021, 20.3340477 ], [ 73.0313442, 20.333572 ], [ 73.0315056, 20.3330369 ], [ 73.031471, 20.3325234 ], [ 73.0312981, 20.3321017 ], [ 73.0310099, 20.3319666 ], [ 73.0304104, 20.3320207 ], [ 73.02988, 20.3322963 ], [ 73.0289519, 20.3327234 ], [ 73.0282947, 20.3328315 ], [ 73.0277759, 20.3327072 ], [ 73.027407, 20.3324315 ], [ 73.0273148, 20.3318693 ], [ 73.0273666, 20.3316153 ], [ 73.027234, 20.3308044 ], [ 73.027015, 20.3304098 ], [ 73.0266806, 20.3300369 ], [ 73.0263463, 20.330026 ], [ 73.0257698, 20.3301396 ], [ 73.0251703, 20.3302963 ], [ 73.0248187, 20.3301396 ], [ 73.0244786, 20.3299828 ], [ 73.0240405, 20.3294801 ], [ 73.0233718, 20.3290963 ], [ 73.0226224, 20.3290368 ], [ 73.0219075, 20.3295017 ], [ 73.0210544, 20.3301287 ], [ 73.0204087, 20.3307125 ], [ 73.0199245, 20.3310369 ], [ 73.0196305, 20.331199 ], [ 73.0193192, 20.3312585 ], [ 73.0186563, 20.3312153 ], [ 73.0182297, 20.3311071 ], [ 73.0176014, 20.3304963 ], [ 73.0172209, 20.3303071 ], [ 73.0166099, 20.3301558 ], [ 73.0158489, 20.3304423 ], [ 73.0149958, 20.330745 ], [ 73.0143098, 20.3314261 ], [ 73.0139293, 20.3317017 ], [ 73.0135661, 20.332399 ], [ 73.0133528, 20.3334909 ], [ 73.0129551, 20.334145 ], [ 73.0127591, 20.3342261 ], [ 73.0124593, 20.3342261 ], [ 73.0121942, 20.3340909 ], [ 73.01205, 20.3338369 ], [ 73.0121711, 20.3333342 ], [ 73.0122922, 20.3327072 ], [ 73.0123152, 20.3321504 ], [ 73.0121596, 20.3316207 ], [ 73.0117445, 20.331145 ], [ 73.0115082, 20.3310909 ], [ 73.0112257, 20.3312315 ], [ 73.0109202, 20.3316801 ], [ 73.0105397, 20.3321774 ], [ 73.0101708, 20.332572 ], [ 73.0097903, 20.3327126 ], [ 73.0095021, 20.3327126 ], [ 73.0089717, 20.3325882 ], [ 73.0081128, 20.3323017 ], [ 73.0071271, 20.3321936 ], [ 73.0062566, 20.3323072 ], [ 73.0056859, 20.3324045 ], [ 73.004729, 20.332745 ], [ 73.0042448, 20.3329936 ], [ 73.0036798, 20.333772 ], [ 73.0033166, 20.3342639 ], [ 73.0029189, 20.334372 ], [ 73.0023655, 20.3343342 ], [ 73.0018813, 20.3342315 ], [ 73.0014777, 20.3342531 ], [ 73.0012587, 20.3348044 ], [ 73.0012068, 20.3356963 ], [ 73.0009532, 20.3362369 ], [ 73.0000193, 20.3367341 ], [ 72.9998867, 20.3367774 ], [ 72.9996676, 20.336999 ], [ 72.9995408, 20.3373612 ], [ 72.9996907, 20.3381125 ], [ 72.9998406, 20.3384476 ], [ 72.9998809, 20.3388206 ], [ 72.9998752, 20.3391989 ], [ 72.9998002, 20.3397503 ], [ 72.9995062, 20.3403557 ], [ 72.9991085, 20.3409178 ], [ 72.9984801, 20.3416853 ], [ 72.997431, 20.3423069 ], [ 72.9970447, 20.3424799 ], [ 72.9967219, 20.342442 ], [ 72.9959725, 20.342388 ], [ 72.9948888, 20.342242 ], [ 72.994272, 20.3422907 ], [ 72.9933612, 20.3422583 ], [ 72.9921448, 20.3420204 ], [ 72.9915165, 20.3419502 ], [ 72.9911994, 20.341988 ], [ 72.9908824, 20.3419934 ], [ 72.9906748, 20.3421339 ], [ 72.9905134, 20.3422691 ], [ 72.9904558, 20.3426312 ], [ 72.9905826, 20.3431501 ], [ 72.9906633, 20.3435122 ], [ 72.9905999, 20.3438528 ], [ 72.9903578, 20.3445878 ], [ 72.9902137, 20.3451878 ], [ 72.990035, 20.3458256 ], [ 72.9898909, 20.3467823 ], [ 72.9897929, 20.3477714 ], [ 72.9894182, 20.3485659 ], [ 72.988882, 20.3489496 ], [ 72.9878098, 20.3489064 ], [ 72.9868471, 20.348928 ], [ 72.9862764, 20.3488577 ], [ 72.9857922, 20.3490091 ], [ 72.9855097, 20.3492469 ], [ 72.9853195, 20.3495928 ], [ 72.9852792, 20.3499117 ], [ 72.985429, 20.3501873 ], [ 72.9858729, 20.3506629 ], [ 72.9860401, 20.3512413 ], [ 72.9859709, 20.351879 ], [ 72.9857346, 20.35256 ], [ 72.9855559, 20.3533221 ], [ 72.9855732, 20.3540517 ], [ 72.9855789, 20.3544355 ], [ 72.9858729, 20.3549219 ], [ 72.9860804, 20.3552245 ], [ 72.9862073, 20.355765 ], [ 72.9861669, 20.3560406 ], [ 72.9859824, 20.356246 ], [ 72.985798, 20.3563325 ], [ 72.9856135, 20.3562676 ], [ 72.9854924, 20.3560839 ], [ 72.9853599, 20.3557758 ], [ 72.9852042, 20.3555596 ], [ 72.9849563, 20.3554245 ], [ 72.9842703, 20.3554083 ], [ 72.9835901, 20.3557542 ], [ 72.9831232, 20.3559271 ], [ 72.9827485, 20.3559163 ], [ 72.9824487, 20.3558244 ], [ 72.9820221, 20.3554948 ], [ 72.9815898, 20.3554083 ], [ 72.9806329, 20.3552948 ], [ 72.9797394, 20.3552083 ], [ 72.979209, 20.3553759 ], [ 72.9785057, 20.3556947 ], [ 72.9780907, 20.3560298 ], [ 72.9779639, 20.3563919 ], [ 72.9781195, 20.3567108 ], [ 72.9786326, 20.3571918 ], [ 72.9794338, 20.3577971 ], [ 72.9799354, 20.3582511 ], [ 72.980091, 20.3585321 ], [ 72.9801429, 20.358797 ], [ 72.9799988, 20.3591483 ], [ 72.9797855, 20.3594401 ], [ 72.979209, 20.3594725 ], [ 72.9786095, 20.3595158 ], [ 72.9781829, 20.3594833 ], [ 72.9776929, 20.3593806 ], [ 72.9773355, 20.3593482 ], [ 72.9771165, 20.359505 ], [ 72.9769262, 20.3596022 ], [ 72.9765285, 20.3600724 ], [ 72.9763325, 20.3604453 ], [ 72.9760442, 20.3611371 ], [ 72.9752545, 20.3620721 ], [ 72.9747876, 20.3623315 ], [ 72.9737442, 20.362499 ], [ 72.9730639, 20.3625639 ], [ 72.9724586, 20.3626774 ], [ 72.9721185, 20.3628557 ], [ 72.9721185, 20.3634556 ], [ 72.9721416, 20.3641257 ], [ 72.9724529, 20.3651525 ], [ 72.9727526, 20.3660497 ], [ 72.9728506, 20.3668927 ], [ 72.9727296, 20.3675953 ], [ 72.9727584, 20.3680438 ], [ 72.9728795, 20.3684491 ], [ 72.9732138, 20.3693084 ], [ 72.973381, 20.3697029 ], [ 72.9734905, 20.3701136 ], [ 72.9734329, 20.371108 ], [ 72.9734386, 20.3717889 ], [ 72.9736692, 20.3723347 ], [ 72.9738479, 20.3726103 ], [ 72.9740612, 20.3728589 ], [ 72.9741131, 20.3734155 ], [ 72.9739171, 20.3739775 ], [ 72.9736058, 20.3742423 ], [ 72.9731348, 20.3745103 ], [ 72.9723481, 20.3749689 ], [ 72.9717366, 20.3754656 ], [ 72.9716307, 20.3759624 ], [ 72.9717774, 20.3766005 ], [ 72.9718059, 20.3769406 ], [ 72.9715944, 20.3772901 ], [ 72.9711904, 20.3776322 ], [ 72.9705056, 20.3777698 ], [ 72.9695151, 20.3778653 ], [ 72.9690141, 20.3780384 ], [ 72.9685287, 20.378427 ], [ 72.9683208, 20.3789772 ], [ 72.9681659, 20.3793631 ], [ 72.967982, 20.3796009 ], [ 72.9669617, 20.3799413 ], [ 72.9659298, 20.3804439 ], [ 72.9655378, 20.3806492 ], [ 72.9647884, 20.3808059 ], [ 72.9637162, 20.3810113 ], [ 72.9631743, 20.3811194 ], [ 72.9624711, 20.3813625 ], [ 72.9617735, 20.3819948 ], [ 72.9616179, 20.3825675 ], [ 72.9614219, 20.3829674 ], [ 72.9614046, 20.3836699 ], [ 72.9615372, 20.3848425 ], [ 72.9613815, 20.385264 ], [ 72.9609146, 20.3860691 ], [ 72.9605572, 20.3868148 ], [ 72.9600903, 20.3872471 ], [ 72.9595023, 20.387728 ], [ 72.9584646, 20.3882359 ], [ 72.9581303, 20.3884737 ], [ 72.9581015, 20.3886952 ], [ 72.9581534, 20.3890572 ], [ 72.9584012, 20.3892896 ], [ 72.9587644, 20.3895003 ], [ 72.9594907, 20.3896894 ], [ 72.9599865, 20.3897435 ], [ 72.9609204, 20.3899056 ], [ 72.9612317, 20.3900407 ], [ 72.9613642, 20.3903811 ], [ 72.9614392, 20.3909809 ], [ 72.9611586, 20.3914897 ], [ 72.9608407, 20.3918106 ], [ 72.9606043, 20.3921316 ], [ 72.960376, 20.3933313 ], [ 72.9596301, 20.3944343 ] ] } }
]
}
